[{"OBJECT_NAME":"STARLINK-3874","OBJECT_ID":"2022-045AL","EPOCH":"2026-03-09T12:40:13.277280","MEAN_MOTION":15.08840357,"ECCENTRICITY":0.00013375,"INCLINATION":53.2159,"RA_OF_ASC_NODE":189.8483,"ARG_OF_PERICENTER":81.4081,"MEAN_ANOMALY":278.7063,"EPHEMERIS_TYPE":0,"CLASSIFICATION_TYPE":"U","NORAD_CAT_ID":52365,"ELEMENT_SET_NO":999,"REV_AT_EPOCH":21589,"BSTAR":-5.619475e-6,"MEAN_MOTION_DOT":-3.77e-6,"MEAN_MOTION_DDOT":0},{"OBJECT_NAME":"OBJECT B","OBJECT_ID":"2023-069B","EPOCH":"2026-03-09T13:07:46.108416","MEAN_MOTION":15.09579619,"ECCENTRICITY":0.00116524,"INCLINATION":41.0081,"RA_OF_ASC_NODE":274.4606,"ARG_OF_PERICENTER":279.7432,"MEAN_ANOMALY":80.2064,"EPHEMERIS_TYPE":0,"CLASSIFICATION_TYPE":"U","NORAD_CAT_ID":56732,"ELEMENT_SET_NO":999,"REV_AT_EPOCH":15516,"BSTAR":0.00042419683,"MEAN_MOTION_DOT":6.772e-5,"MEAN_MOTION_DDOT":0}]
